{
  "type": "FeatureCollection",
  "features": [
    {
      "type": "Feature",
      "properties": {
        "norad_id": 33835,
        "name": "COSMOS 2251 DEB",
        "group": "cosmos-2251-debris",
        "lat": -73.16440558441907,
        "lon": 36.63523610725013,
        "alt_km": 708.416069310877,
        "timestamp": "2025-12-09T09:46:48.038339+00:00",
        "meta_object_name": "COSMOS 2251 DEB",
        "meta_object_id": "1993-036CC",
        "meta_epoch": "2025-12-09T02:46:17.451264",
        "meta_mean_motion": 14.62184294,
        "meta_eccentricity": 0.0055068,
        "meta_inclination": 74.0576,
        "meta_ra_of_asc_node": 108.0411,
        "meta_arg_of_pericenter": 162.5817,
        "meta_mean_anomaly": 15.7785,
        "meta_ephemeris_type": 0,
        "meta_classification_type": "U",
        "meta_norad_cat_id": 33835,
        "meta_element_set_no": 999,
        "meta_rev_at_epoch": 88736,
        "meta_bstar": 0.001489,
        "meta_mean_motion_dot": 7.638e-05,
        "meta_mean_motion_ddot": 0,
        "tle_line1": "1 33835U 93036CC  25343.11547976  .00007638  00000+0  14890-2 0  9997",
        "tle_line2": "2 33835  74.0576 108.0411 0055068 162.5817  15.7785 14.62184294887368"
      },
      "geometry": {
        "type": "Point",
        "coordinates": [
          36.63523610725013,
          -73.16440558441907
        ]
      }
    },
    {
      "type": "Feature",
      "properties": {
        "norad_id": 33836,
        "name": "COSMOS 2251 DEB",
        "group": "cosmos-2251-debris",
        "lat": 73.9777140675641,
        "lon": -2.4735035968009633,
        "alt_km": 609.6873514789222,
        "timestamp": "2025-12-09T09:46:48.038350+00:00",
        "meta_object_name": "COSMOS 2251 DEB",
        "meta_object_id": "1993-036CD",
        "meta_epoch": "2025-12-09T05:03:03.305952",
        "meta_mean_motion": 14.79507371,
        "meta_eccentricity": 0.0022507,
        "meta_inclination": 73.9972,
        "meta_ra_of_asc_node": 265.914,
        "meta_arg_of_pericenter": 120.4204,
        "meta_mean_anomaly": 1.1846,
        "meta_ephemeris_type": 0,
        "meta_classification_type": "U",
        "meta_norad_cat_id": 33836,
        "meta_element_set_no": 999,
        "meta_rev_at_epoch": 64036,
        "meta_bstar": 0.0015908,
        "meta_mean_motion_dot": 0.00011933,
        "meta_mean_motion_ddot": 0,
        "tle_line1": "1 33836U 93036CD  25343.21045493  .00011933  00000+0  15908-2 0  9990",
        "tle_line2": "2 33836  73.9972 265.9140 0022507 120.4204   1.1846 14.79507371640361"
      },
      "geometry": {
        "type": "Point",
        "coordinates": [
          -2.4735035968009633,
          73.9777140675641
        ]
      }
    },
    {
      "type": "Feature",
      "properties": {
        "norad_id": 33837,
        "name": "COSMOS 2251 DEB",
        "group": "cosmos-2251-debris",
        "lat": 52.76224208097215,
        "lon": 84.03057067673397,
        "alt_km": 735.0315686706117,
        "timestamp": "2025-12-09T09:46:48.038361+00:00",
        "meta_object_name": "COSMOS 2251 DEB",
        "meta_object_id": "1993-036CE",
        "meta_epoch": "2025-12-09T04:33:27.404928",
        "meta_mean_motion": 14.50688508,
        "meta_eccentricity": 0.0035822,
        "meta_inclination": 74.0132,
        "meta_ra_of_asc_node": 62.2812,
        "meta_arg_of_pericenter": 284.5896,
        "meta_mean_anomaly": 75.1293,
        "meta_ephemeris_type": 0,
        "meta_classification_type": "U",
        "meta_norad_cat_id": 33837,
        "meta_element_set_no": 999,
        "meta_rev_at_epoch": 88744,
        "meta_bstar": 0.00041012,
        "meta_mean_motion_dot": 1.596e-05,
        "meta_mean_motion_ddot": 0,
        "tle_line1": "1 33837U 93036CE  25343.18990052  .00001596  00000+0  41012-3 0  9997",
        "tle_line2": "2 33837  74.0132  62.2812 0035822 284.5896  75.1293 14.50688508887449"
      },
      "geometry": {
        "type": "Point",
        "coordinates": [
          84.03057067673397,
          52.76224208097215
        ]
      }
    },
    {
      "type": "Feature",
      "properties": {
        "norad_id": 33838,
        "name": "COSMOS 2251 DEB",
        "group": "cosmos-2251-debris",
        "lat": -41.57885042246796,
        "lon": 141.3424681187208,
        "alt_km": 721.9064233285344,
        "timestamp": "2025-12-09T09:46:48.038371+00:00",
        "meta_object_name": "COSMOS 2251 DEB",
        "meta_object_id": "1993-036CF",
        "meta_epoch": "2025-12-08T22:55:26.841792",
        "meta_mean_motion": 14.48344419,
        "meta_eccentricity": 0.0027446,
        "meta_inclination": 74.0362,
        "meta_ra_of_asc_node": 156.9009,
        "meta_arg_of_pericenter": 279.3023,
        "meta_mean_anomaly": 199.4378,
        "meta_ephemeris_type": 0,
        "meta_classification_type": "U",
        "meta_norad_cat_id": 33838,
        "meta_element_set_no": 999,
        "meta_rev_at_epoch": 88514,
        "meta_bstar": 0.00053326,
        "meta_mean_motion_dot": 1.977e-05,
        "meta_mean_motion_ddot": 0,
        "tle_line1": "1 33838U 93036CF  25342.95517178  .00001977  00000+0  53326-3 0  9990",
        "tle_line2": "2 33838  74.0362 156.9009 0027446 279.3023 199.4378 14.48344419885147"
      },
      "geometry": {
        "type": "Point",
        "coordinates": [
          141.3424681187208,
          -41.57885042246796
        ]
      }
    },
    {
      "type": "Feature",
      "properties": {
        "norad_id": 33839,
        "name": "COSMOS 2251 DEB",
        "group": "cosmos-2251-debris",
        "lat": 48.49951266848042,
        "lon": -128.24334478062013,
        "alt_km": 669.0704155472658,
        "timestamp": "2025-12-09T09:46:48.038382+00:00",
        "meta_object_name": "COSMOS 2251 DEB",
        "meta_object_id": "1993-036CG",
        "meta_epoch": "2025-12-09T02:02:19.681728",
        "meta_mean_motion": 14.64404526,
        "meta_eccentricity": 0.0085008,
        "meta_inclination": 74.0391,
        "meta_ra_of_asc_node": 213.5026,
        "meta_arg_of_pericenter": 326.4353,
        "meta_mean_anomaly": 184.0944,
        "meta_ephemeris_type": 0,
        "meta_classification_type": "U",
        "meta_norad_cat_id": 33839,
        "meta_element_set_no": 999,
        "meta_rev_at_epoch": 89526,
        "meta_bstar": 0.00033198,
        "meta_mean_motion_dot": 1.817e-05,
        "meta_mean_motion_ddot": 0,
        "tle_line1": "1 33839U 93036CG  25343.08495002  .00001817  00000+0  33198-3 0  9995",
        "tle_line2": "2 33839  74.0391 213.5026 0085008 326.4353 184.0944 14.64404526895264"
      },
      "geometry": {
        "type": "Point",
        "coordinates": [
          -128.24334478062013,
          48.49951266848042
        ]
      }
    },
    {
      "type": "Feature",
      "properties": {
        "norad_id": 33841,
        "name": "COSMOS 2251 DEB",
        "group": "cosmos-2251-debris",
        "lat": 71.52031340620337,
        "lon": 45.25951986380983,
        "alt_km": 759.3639762640732,
        "timestamp": "2025-12-09T09:46:48.038393+00:00",
        "meta_object_name": "COSMOS 2251 DEB",
        "meta_object_id": "1993-036CJ",
        "meta_epoch": "2025-12-09T04:52:22.126368",
        "meta_mean_motion": 14.3785167,
        "meta_eccentricity": 0.0020384,
        "meta_inclination": 74.0377,
        "meta_ra_of_asc_node": 284.5535,
        "meta_arg_of_pericenter": 5.7324,
        "meta_mean_anomaly": 115.4887,
        "meta_ephemeris_type": 0,
        "meta_classification_type": "U",
        "meta_norad_cat_id": 33841,
        "meta_element_set_no": 999,
        "meta_rev_at_epoch": 88063,
        "meta_bstar": 0.00038666,
        "meta_mean_motion_dot": 1.143e-05,
        "meta_mean_motion_ddot": 0,
        "tle_line1": "1 33841U 93036CJ  25343.20303387  .00001143  00000+0  38666-3 0  9993",
        "tle_line2": "2 33841  74.0377 284.5535 0020384   5.7324 115.4887 14.37851670880630"
      },
      "geometry": {
        "type": "Point",
        "coordinates": [
          45.25951986380983,
          71.52031340620337
        ]
      }
    },
    {
      "type": "Feature",
      "properties": {
        "norad_id": 33842,
        "name": "COSMOS 2251 DEB",
        "group": "cosmos-2251-debris",
        "lat": -60.155929560345044,
        "lon": -164.0984161253633,
        "alt_km": 729.9349482566504,
        "timestamp": "2025-12-09T09:46:48.038403+00:00",
        "meta_object_name": "COSMOS 2251 DEB",
        "meta_object_id": "1993-036CK",
        "meta_epoch": "2025-12-09T03:25:07.247136",
        "meta_mean_motion": 14.42685315,
        "meta_eccentricity": 0.0047188,
        "meta_inclination": 74.0333,
        "meta_ra_of_asc_node": 226.3287,
        "meta_arg_of_pericenter": 334.3707,
        "meta_mean_anomaly": 25.511,
        "meta_ephemeris_type": 0,
        "meta_classification_type": "U",
        "meta_norad_cat_id": 33842,
        "meta_element_set_no": 999,
        "meta_rev_at_epoch": 88285,
        "meta_bstar": 0.00045717,
        "meta_mean_motion_dot": 1.514e-05,
        "meta_mean_motion_ddot": 0,
        "tle_line1": "1 33842U 93036CK  25343.14244499  .00001514  00000+0  45717-3 0  9992",
        "tle_line2": "2 33842  74.0333 226.3287 0047188 334.3707  25.5110 14.42685315882851"
      },
      "geometry": {
        "type": "Point",
        "coordinates": [
          -164.0984161253633,
          -60.155929560345044
        ]
      }
    }
  ]
}